[
  {
    "name": "STARLINK-34262",
    "noradId": "64688",
    "line1": "1 64688U 25139AA  26168.99962880  .00026421  00000+0  79035-3 0  9997",
    "line2": "2 64688  53.1590  19.5724 0001151  77.4176 282.6955 15.34399446 55729"
  },
  {
    "name": "STARLINK-34538",
    "noradId": "64689",
    "line1": "1 64689U 25139AB  26168.99752517  .00013432  00000+0  40800-3 0  9998",
    "line2": "2 64689  53.1584  19.5634 0000973  66.3108 293.7996 15.34397537 55666"
  },
  {
    "name": "STARLINK-34250",
    "noradId": "64690",
    "line1": "1 64690U 25139AC  26168.88198222  .00021431  00000+0  64358-3 0  9997",
    "line2": "2 64690  53.1579  20.2592 0000929  60.2320 299.8775 15.34400282 55646"
  },
  {
    "name": "STARLINK-34497",
    "noradId": "64696",
    "line1": "1 64696U 25142A   26169.44263220  .00001503  00000+0  13367-3 0  9993",
    "line2": "2 64696  70.0012  60.3845 0002725 269.4641  90.6205 14.98333975 54730"
  },
  {
    "name": "STARLINK-34584",
    "noradId": "64697",
    "line1": "1 64697U 25142B   26169.42576840  .00002210  00000+0  19296-3 0  9990",
    "line2": "2 64697  70.0013  60.3202 0003163 268.3171  91.7625 14.98335269 54570"
  },
  {
    "name": "STARLINK-34535",
    "noradId": "64698",
    "line1": "1 64698U 25142C   26169.40492310  .00001719  00000+0  15180-3 0  9999",
    "line2": "2 64698  70.0010  60.6310 0002669 268.1844  91.9010 14.98336276 54553"
  },
  {
    "name": "STARLINK-34600",
    "noradId": "64699",
    "line1": "1 64699U 25142D   26169.40073158  .00009604  00000+0  81053-3 0  9998",
    "line2": "2 64699  70.0009  60.6130 0003129 267.5230  92.5571 14.98379416 54569"
  },
  {
    "name": "STARLINK-34560",
    "noradId": "64700",
    "line1": "1 64700U 25142E   26169.41327278  .00004663  00000+0  39825-3 0  9997",
    "line2": "2 64700  70.0050  60.6508 0001717 282.0516  78.0450 14.98340955 54524"
  },
  {
    "name": "STARLINK-34576",
    "noradId": "64701",
    "line1": "1 64701U 25142F   26169.43010761  .00001679  00000+0  14847-3 0  9997",
    "line2": "2 64701  70.0013  60.3072 0002735 269.2952  90.7893 14.98333221 54563"
  },
  {
    "name": "STARLINK-34322",
    "noradId": "64702",
    "line1": "1 64702U 25142G   26169.10048178  .00003052  00000+0  26340-3 0  9993",
    "line2": "2 64702  70.0014  61.1665 0002888 268.9624  91.1204 14.98336230 54680"
  },
  {
    "name": "STARLINK-34470",
    "noradId": "64703",
    "line1": "1 64703U 25142H   26169.42175989  .00001159  00000+0  10488-3 0  9992",
    "line2": "2 64703  70.0010  60.2812 0002930 270.3631  89.7193 14.98332188 54558"
  },
  {
    "name": "STARLINK-34405",
    "noradId": "64704",
    "line1": "1 64704U 25142J   26169.43845880  .00001966  00000+0  17246-3 0  9993",
    "line2": "2 64704  70.0010  60.3680 0002645 269.8190  90.2666 14.98335372 54582"
  },
  {
    "name": "STARLINK-34406",
    "noradId": "64705",
    "line1": "1 64705U 25142K   26169.39658016  .00003361  00000+0  28919-3 0  9992",
    "line2": "2 64705  70.0015  60.6237 0003063 275.1084  84.9726 14.98344652 54685"
  },
  {
    "name": "STARLINK-34559",
    "noradId": "64706",
    "line1": "1 64706U 25142L   26169.43830216  .00001169  00000+0  10579-3 0  9999",
    "line2": "2 64706  70.0008  60.3646 0002486 270.4355  89.6520 14.98327079 54583"
  },
  {
    "name": "STARLINK-34316",
    "noradId": "64707",
    "line1": "1 64707U 25142M   26169.44246635  .00002555  00000+0  22180-3 0  9998",
    "line2": "2 64707  70.0012  60.3780 0002906 263.3271  96.7558 14.98336493 54741"
  },
  {
    "name": "STARLINK-34563",
    "noradId": "64708",
    "line1": "1 64708U 25142N   26169.41744875  .00000859  00000+0  79783-4 0  9992",
    "line2": "2 64708  70.0011  60.6912 0002572 268.6344  91.4521 14.98331834 54543"
  },
  {
    "name": "STARLINK-34499",
    "noradId": "64709",
    "line1": "1 64709U 25142P   26169.43413624  .00005308  00000+0  45234-3 0  9997",
    "line2": "2 64709  70.0022  60.3288 0002561 267.5426  92.5440 14.98325868 54559"
  },
  {
    "name": "STARLINK-34447",
    "noradId": "64710",
    "line1": "1 64710U 25142Q   26169.12135136  .00001996  00000+0  17502-3 0  9990",
    "line2": "2 64710  70.0013  61.2289 0002691 268.4445  91.6406 14.98335768 54694"
  },
  {
    "name": "STARLINK-34312",
    "noradId": "64711",
    "line1": "1 64711U 25142R   26169.44680579  .00001583  00000+0  14041-3 0  9999",
    "line2": "2 64711  70.0013  60.3875 0002886 267.6731  92.4097 14.98334574 54746"
  },
  {
    "name": "STARLINK-34515",
    "noradId": "64712",
    "line1": "1 64712U 25142S   26169.42593024  .00006924  00000+0  58720-3 0  9992",
    "line2": "2 64712  70.0016  60.2973 0002384 273.8499  86.2387 14.98350203 54550"
  },
  {
    "name": "STARLINK-34583",
    "noradId": "64713",
    "line1": "1 64713U 25142T   26169.40911071  .00005628  00000+0  47888-3 0  9990",
    "line2": "2 64713  70.0013  60.6328 0003130 272.9113  87.1688 14.98344144 54549"
  },
  {
    "name": "STARLINK-34574",
    "noradId": "64714",
    "line1": "1 64714U 25142U   26169.12552625  .00001797  00000+0  15833-3 0  9994",
    "line2": "2 64714  70.0012  61.2767 0002799 261.5508  98.5334 14.98336608 54534"
  },
  {
    "name": "STARLINK-34533",
    "noradId": "64715",
    "line1": "1 64715U 25142V   26169.44662388  .00010021  00000+0  84565-3 0  9996",
    "line2": "2 64715  70.0013  60.3950 0003153 270.4692  89.6106 14.98365797 54559"
  },
  {
    "name": "STARLINK-34548",
    "noradId": "64716",
    "line1": "1 64716U 25142W   26169.42993457  .00001383  00000+0  12367-3 0  9991",
    "line2": "2 64716  70.0013  60.3357 0002687 272.1877  87.8975 14.98340720 54559"
  },
  {
    "name": "STARLINK-34568",
    "noradId": "64717",
    "line1": "1 64717U 25142X   26169.12118848  .00002351  00000+0  20477-3 0  9999",
    "line2": "2 64717  70.0013  61.2655 0002866 270.1030  89.9800 14.98336424 54533"
  },
  {
    "name": "STARLINK-34546",
    "noradId": "64718",
    "line1": "1 64718U 25142Y   26169.42159653  .00000963  00000+0  88499-4 0  9998",
    "line2": "2 64718  70.0011  60.3059 0002761 270.1892  89.8950 14.98331731 54744"
  },
  {
    "name": "STARLINK-34577",
    "noradId": "64719",
    "line1": "1 64719U 25142Z   26169.12536120  .00004038  00000+0  34588-3 0  9990",
    "line2": "2 64719  70.0014  61.2452 0002875 261.7780  98.3053 14.98346653 54538"
  },
  {
    "name": "STARLINK-34572",
    "noradId": "64720",
    "line1": "1 64720U 25142AA  26169.11701475  .00002801  00000+0  24236-3 0  9993",
    "line2": "2 64720  70.0013  61.2492 0002873 267.9369  92.1461 14.98337693 54698"
  },
  {
    "name": "STARLINK-34558",
    "noradId": "64721",
    "line1": "1 64721U 25142AB  26169.11717961  .00002052  00000+0  17972-3 0  9998",
    "line2": "2 64721  70.0014  61.2451 0002682 265.0087  95.0766 14.98337240 54507"
  },
  {
    "name": "STARLINK-34393",
    "noradId": "64724",
    "line1": "1 64724U 25144A   26169.45752467  .00011601  00000+0  40353-3 0  9999",
    "line2": "2 64724  53.1613  72.7200 0001229  95.0484 265.0657 15.30173615 55155"
  },
  {
    "name": "STARLINK-34562",
    "noradId": "64725",
    "line1": "1 64725U 25144B   26169.43336489  .00012865  00000+0  44570-3 0  9998",
    "line2": "2 64725  53.1592  73.2790 0001619  70.9367 289.1809 15.30201417 55111"
  },
  {
    "name": "STARLINK-34557",
    "noradId": "64726",
    "line1": "1 64726U 25144C   26169.02036783  .00009001  00000+0  31565-3 0  9996",
    "line2": "2 64726  53.1590  74.9723 0001151  93.5770 266.5362 15.30199476 55073"
  },
  {
    "name": "STARLINK-34242",
    "noradId": "64727",
    "line1": "1 64727U 25144D   26169.44076610  .00031175  00000+0  10595-2 0  9992",
    "line2": "2 64727  53.1591  73.3192 0001302  73.0938 287.0205 15.30222541 55136"
  },
  {
    "name": "STARLINK-34239",
    "noradId": "64728",
    "line1": "1 64728U 25144E   26169.01298279  .00015299  00000+0  52756-3 0  9998",
    "line2": "2 64728  53.1599  74.9194 0001118  70.4662 289.6459 15.30203250 55072"
  },
  {
    "name": "STARLINK-34588",
    "noradId": "64729",
    "line1": "1 64729U 25144F   26169.42702990  .00011442  00000+0  39783-3 0  9995",
    "line2": "2 64729  53.1585  73.2399 0001120  87.8186 272.2943 15.30200846 55134"
  },
  {
    "name": "STARLINK-34606",
    "noradId": "64730",
    "line1": "1 64730U 25144G   26169.01403702  .00013030  00000+0  45123-3 0  9991",
    "line2": "2 64730  53.1594  74.9306 0001310 105.3178 254.7967 15.30203318 55071"
  },
  {
    "name": "STARLINK-34552",
    "noradId": "64731",
    "line1": "1 64731U 25144H   26169.46279990  .00006599  00000+0  23473-3 0  9997",
    "line2": "2 64731  53.1606  72.7465 0001432  93.4832 266.6333 15.30199372 55148"
  },
  {
    "name": "STARLINK-34596",
    "noradId": "64732",
    "line1": "1 64732U 25144J   26169.58334491  .00053342  00000+0  16233-2 0  9992",
    "line2": "2 64732  53.1592  72.4083 0000796  90.5654 104.2607 15.33518737  5765"
  },
  {
    "name": "STARLINK-34556",
    "noradId": "64733",
    "line1": "1 64733U 25144K   26169.44332925  .00016630  00000+0  50234-3 0  9997",
    "line2": "2 64733  53.1598  69.0827 0001605  84.3291 275.7895 15.34392083 55198"
  },
  {
    "name": "STARLINK-34591",
    "noradId": "64734",
    "line1": "1 64734U 25144L   26169.46701895  .00012703  00000+0  44024-3 0  9993",
    "line2": "2 64734  53.1605  72.7763 0001217  76.4577 283.6560 15.30203252 55121"
  },
  {
    "name": "STARLINK-34587",
    "noradId": "64735",
    "line1": "1 64735U 25144M   26169.16999012  .00013549  00000+0  46856-3 0  9995",
    "line2": "2 64735  53.1581  74.4854 0001159 109.1522 250.9604 15.30213260 55041"
  },
  {
    "name": "STARLINK-34130",
    "noradId": "64736",
    "line1": "1 64736U 25144N   26169.02247801  .00020346  00000+0  69711-3 0  9991",
    "line2": "2 64736  53.1592  74.9776 0001087  77.1138 282.9984 15.30202895 55070"
  }
]